NORAD_CAT_ID,OBJECT_NAME,OBJECT_TYPE,EPOCH,MEAN_MOTION,ECCENTRICITY,INCLINATION,RA_OF_ASC_NODE,ARG_OF_PERICENTER,MEAN_ANOMALY,BSTAR,MEAN_MOTION_DOT,MEAN_MOTION_DDOT,TLE_LINE0,TLE_LINE1,TLE_LINE2,SEMIMAJOR_AXIS,PERIOD,APOGEE,PERIGEE,DECAYED
54065.0,STARLINK-5187,PAYLOAD,2023-04-15 03:55:50,15.08837557,9.41e-05,53.218,60.372,86.7776,273.3324,7.3012e-05,8.74e-06,0.0,0 STARLINK-5187,1 54065U 22136Q   23105.16378341  .00000874  00000-0  73012-4 0  9994,2 54065  53.2180  60.3720 0000941  86.7776 273.3324 15.08837557 26892,6917.888,95.438,540.404,539.102,0.0
54065.0,STARLINK-5187,PAYLOAD,2023-04-15 19:49:42,15.08842521,0.0001012,53.2184,57.4002,108.7739,251.3363,-1.5947e-05,-5.42e-06,0.0,0 STARLINK-5187,1 54065U 22136Q   23105.82618373 -.00000542  00000-0 -15947-4 0  9996,2 54065  53.2184  57.4002 0001012 108.7739 251.3363 15.08842521 26997,6917.873,95.437,540.438,539.038,0.0
54065.0,STARLINK-5187,PAYLOAD,2023-04-16 05:22:00,15.08845402,0.0001046,53.2195,55.6137,98.9319,261.1792,1.4684e-05,-5.4e-07,0.0,0 STARLINK-5187,1 54065U 22136Q   23106.22362175 -.00000054  00000-0  14684-4 0  9991,2 54065  53.2195  55.6137 0001046  98.9319 261.1792 15.08845402 27536,6917.864,95.437,540.452,539.005,0.0
54065.0,STARLINK-5187,PAYLOAD,2023-04-16 06:57:23,15.08846714,9.61e-05,53.2183,55.3134,90.8523,269.2579,2.4063e-05,9.5e-07,0.0,0 STARLINK-5187,1 54065U 22136Q   23106.28985906  .00000095  00000-0  24063-4 0  9996,2 54065  53.2183  55.3134 0000961  90.8523 269.2579 15.08846714 27067,6917.86,95.437,540.39,539.06,0.0
54065.0,STARLINK-5187,PAYLOAD,2023-04-17 05:12:47,15.08847572,0.0001097,53.2185,51.15,101.825,258.2865,6.2047e-05,7e-06,0.0,0 STARLINK-5187,1 54065U 22136Q   23107.21722143  .00000700  00000-0  62047-4 0  9999,2 54065  53.2185  51.1500 0001097 101.8250 258.2865 15.08847572 27206,6917.857,95.437,540.481,538.963,0.0
54065.0,STARLINK-5187,PAYLOAD,2023-04-17 19:31:16,15.08834755,0.0001273,53.2189,48.4775,77.6731,282.4404,0.00013249,1.821e-05,0.0,0 STARLINK-5187,1 54065U 22136Q   23107.81339004  .00001821  00000-0  13249-3 0  9999,2 54065  53.2189  48.4775 0001273  77.6731 282.4404 15.08834755 27772,6917.896,95.438,540.642,538.881,0.0
54065.0,STARLINK-5187,PAYLOAD,2023-04-18 05:03:34,15.08848721,0.0001105,53.2191,46.69,84.2212,275.8906,0.00013306,1.831e-05,0.0,0 STARLINK-5187,1 54065U 22136Q   23108.21082100  .00001831  00000-0  13306-3 0  9991,2 54065  53.2191  46.6900 0001105  84.2212 275.8906 15.08848721 27352,6917.854,95.437,540.483,538.954,0.0
54065.0,STARLINK-5187,PAYLOAD,2023-04-19 03:18:59,15.0884295,0.0001108,53.219,42.5271,95.663,264.4489,-1.2913e-05,-4.93e-06,0.0,0 STARLINK-5187,1 54065U 22136Q   23109.13819174 -.00000493  00000-0 -12913-4 0  9991,2 54065  53.2190  42.5271 0001108  95.6630 264.4489 15.08842950 27976,6917.871,95.437,540.503,538.97,0.0
54065.0,STARLINK-5187,PAYLOAD,2023-04-20 01:34:23,15.08846634,0.0001273,53.2199,38.3651,96.468,263.6457,6.2529e-05,7.08e-06,0.0,0 STARLINK-5187,1 54065U 22136Q   23110.06554797  .00000708  00000-0  62529-4 0  9997,2 54065  53.2199  38.3651 0001273  96.4680 263.6457 15.08846634 27639,6917.86,95.437,540.606,538.844,0.0
54065.0,STARLINK-5187,PAYLOAD,2023-04-21 01:25:12,15.08831132,0.0001024,53.2187,33.9093,91.8471,268.2639,-8.1208e-05,-1.58e-05,0.0,0 STARLINK-5187,1 54065U 22136Q   23111.05916688 -.00001580  00000-0 -81208-4 0  9994,2 54065  53.2187  33.9093 0001024  91.8471 268.2639 15.08831132 28268,6917.907,95.438,540.481,539.064,0.0
54065.0,STARLINK-5187,PAYLOAD,2023-04-21 04:35:58,15.08824063,0.0001049,53.2188,33.3117,96.0713,264.0399,-0.00010438,-1.948e-05,0.0,0 STARLINK-5187,1 54065U 22136Q   23111.19165277 -.00001948  00000-0 -10438-3 0  9993,2 54065  53.2188  33.3117 0001049  96.0713 264.0399 15.08824063 28287,6917.929,95.439,540.52,539.068,0.0
54065.0,STARLINK-5187,PAYLOAD,2023-04-22 01:15:58,15.08845155,3.85e-05,53.2165,29.4478,100.5111,259.5924,2.9222e-05,1.78e-06,0.0,0 STARLINK-5187,1 54065U 22136Q   23112.05275623  .00000178  00000-0  29222-4 0  9990,2 54065  53.2165  29.4478 0000385 100.5111 259.5924 15.08845155 28416,6917.865,95.437,539.996,539.463,0.0
54065.0,STARLINK-5187,PAYLOAD,2023-04-23 04:17:30,15.08846176,0.0001136,53.218,24.3899,104.0045,256.1074,0.00030643,4.593e-05,0.0,0 STARLINK-5187,1 54065U 22136Q   23113.17882897  .00004593  00000-0  30643-3 0  9994,2 54065  53.2180  24.3899 0001136 104.0045 256.1074 15.08846176 28103,6917.862,95.437,540.512,538.941,0.0
54065.0,STARLINK-5187,PAYLOAD,2023-04-24 00:57:33,15.08836185,0.0001425,53.2182,20.5246,101.7874,258.3278,-0.00019727,-3.426e-05,0.0,0 STARLINK-5187,1 54065U 22136Q   23114.03997220 -.00003426  00000-0 -19727-3 0  9993,2 54065  53.2182  20.5246 0001425 101.7874 258.3278 15.08836185 28710,6917.892,95.438,540.743,538.771,0.0
54065.0,STARLINK-5187,PAYLOAD,2023-04-24 04:08:19,15.08842992,0.0001406,53.2187,19.9284,90.0362,270.0791,-0.00014237,-2.553e-05,0.0,0 STARLINK-5187,1 54065U 22136Q   23114.17244732 -.00002553  00000-0 -14237-3 0  9992,2 54065  53.2187  19.9284 0001406  90.0362 270.0791 15.08842992 28736,6917.871,95.437,540.709,538.764,0.0
54065.0,STARLINK-5187,PAYLOAD,2023-04-25 00:48:15,15.0888511,0.0001415,53.2182,16.0631,66.2625,293.8516,0.00026254,3.898e-05,0.0,0 STARLINK-5187,1 54065U 22136Q   23115.03351479  .00003898  00000-0  26254-3 0  9998,2 54065  53.2182  16.0631 0001415  66.2625 293.8516 15.08885110 28380,6917.743,95.435,540.586,538.629,0.0
54065.0,STARLINK-5187,PAYLOAD,2023-04-26 05:25:16,15.0882815,0.0001112,53.2178,10.71,100.905,259.2067,-1.9696e-05,-6.01e-06,0.0,0 STARLINK-5187,1 54065U 22136Q   23116.22589033 -.00000601  00000-0 -19696-4 0  9993,2 54065  53.2178  10.7100 0001112 100.9050 259.2067 15.08828150 28567,6917.917,95.438,540.551,539.012,0.0
54065.0,STARLINK-5187,PAYLOAD,2023-04-26 21:19:06,15.08860832,0.0001136,53.218,7.7403,113.4311,246.68,-0.00026748,-4.545e-05,0.0,0 STARLINK-5187,1 54065U 22136Q   23116.88827180 -.00004545  00000-0 -26748-3 0  9999,2 54065  53.2180   7.7403 0001136 113.4311 246.6800 15.08860832 28666,6917.817,95.436,540.468,538.896,0.0
54065.0,STARLINK-5187,PAYLOAD,2023-04-27 16:23:44,15.088398,0.0001196,53.2178,4.1702,101.352,258.7607,0.0002672,3.967e-05,0.0,0 STARLINK-5187,1 54065U 22136Q   23117.68315525  .00003967  00000-0  26720-3 0  9998,2 54065  53.2178   4.1702 0001196 101.3520 258.7607 15.08839800 29267,6917.881,95.438,540.573,538.919,0.0
54065.0,STARLINK-5187,PAYLOAD,2023-04-28 09:52:59,15.08837127,0.000153,53.2169,0.8993,87.7626,272.3541,0.00016359,2.316e-05,0.0,0 STARLINK-5187,1 54065U 22136Q   23118.41180405  .00002316  00000-0  16359-3 0  9991,2 54065  53.2169   0.8993 0001530  87.7626 272.3541 15.08837127 29379,6917.889,95.438,540.813,538.696,0.0
54065.0,STARLINK-5187,PAYLOAD,2023-04-29 01:46:51,15.08838019,0.0001358,53.2171,357.9245,90.1035,270.0113,4.5205e-07,-2.81e-06,0.0,0 STARLINK-5187,1 54065U 22136Q   23119.07420284 -.00000281  00000-0  45205-6 0  9991,2 54065  53.2171 357.9245 0001358  90.1035 270.0113 15.08838019 28996,6917.886,95.438,540.691,538.812,0.0
54065.0,STARLINK-5187,PAYLOAD,2023-04-29 19:16:05,15.08849154,0.0001289,53.2169,354.6542,84.9792,275.1348,0.00061677,9.544e-05,0.0,0 STARLINK-5187,1 54065U 22136Q   23119.80284134  .00009544  00000-0  61677-3 0  9992,2 54065  53.2169 354.6542 0001289  84.9792 275.1348 15.08849154 29585,6917.852,95.437,540.609,538.826,0.0
54065.0,STARLINK-5187,PAYLOAD,2023-04-30 01:37:37,15.08864376,0.0001269,53.2172,353.4645,82.4067,277.707,0.0010702,0.00016797,0.0,0 STARLINK-5187,1 54065U 22136Q   23120.06779780  .00016797  00000-0  10702-2 0  9998,2 54065  53.2172 353.4645 0001269  82.4067 277.7070 15.08864376 29141,6917.806,95.436,540.549,538.793,0.0
54065.0,STARLINK-5187,PAYLOAD,2023-04-30 15:56:06,15.088475,0.00015,53.2177,350.7858,93.8681,266.2482,0.00041922,6.392e-05,0.0,0 STARLINK-5187,1 54065U 22136Q   23120.66396039  .00006392  00000-0  41922-3 0  9995,2 54065  53.2177 350.7858 0001500  93.8681 266.2482 15.08847500 29711,6917.857,95.437,540.76,538.685,0.0
54065.0,STARLINK-5187,PAYLOAD,2023-04-30 23:53:01,15.08846619,0.0001066,53.2167,349.3022,97.9629,262.1484,0.000354,5.352e-05,0.0,0 STARLINK-5187,1 54065U 22136Q   23120.99515961  .00005352  00000-0  35400-3 0  9997,2 54065  53.2167 349.3022 0001066  97.9629 262.1484 15.08846619 29280,6917.86,95.437,540.463,538.988,0.0
54065.0,STARLINK-5187,PAYLOAD,2023-05-01 22:08:25,15.08840151,0.0001193,53.2173,345.1349,89.1726,270.9403,0.00010604,1.4e-05,0.0,0 STARLINK-5187,1 54065U 22136Q   23121.92252278  .00001400  00000-0  10604-3 0  9999,2 54065  53.2173 345.1349 0001193  89.1726 270.9403 15.08840151 29907,6917.88,95.438,540.57,538.92,0.0
54065.0,STARLINK-5187,PAYLOAD,2023-05-01 23:43:49,15.08841573,0.0001211,53.2174,344.8376,85.1648,274.9483,0.00015254,2.141e-05,0.0,0 STARLINK-5187,1 54065U 22136Q   23121.98876263  .00002141  00000-0  15254-3 0  9990,2 54065  53.2174 344.8376 0001211  85.1648 274.9483 15.08841573 29433,6917.876,95.437,540.578,538.903,0.0
54065.0,STARLINK-5187,PAYLOAD,2023-05-02 20:23:49,15.08845887,0.0001224,53.2172,340.9756,85.345,274.7682,0.00022037,3.222e-05,0.0,0 STARLINK-5187,1 54065U 22136Q   23122.84988176  .00003222  00000-0  22037-3 0  9991,2 54065  53.2172 340.9756 0001224  85.3450 274.7682 15.08845887 29562,6917.862,95.437,540.574,538.881,0.0
54065.0,STARLINK-5187,PAYLOAD,2023-05-02 23:34:35,15.08848624,0.0001251,53.2173,340.3795,82.2482,277.8652,0.00025931,3.842e-05,0.0,0 STARLINK-5187,1 54065U 22136Q   23122.98236038  .00003842  00000-0  25931-3 0  9993,2 54065  53.2173 340.3795 0001251  82.2482 277.8652 15.08848624 30061,6917.854,95.437,540.584,538.854,0.0
54065.0,STARLINK-5187,PAYLOAD,2023-05-03 13:53:04,15.08844554,0.0001344,53.2161,337.7089,96.2117,263.9028,6.9504e-05,8.19e-06,0.0,0 STARLINK-5187,1 54065U 22136Q   23123.57852132  .00000819  00000-0  69504-4 0  9994,2 54065  53.2161 337.7089 0001344  96.2117 263.9028 15.08844554 30158,6917.866,95.437,540.661,538.802,0.0
